[{"OBJECT_NAME":"GAOFEN-6","OBJECT_ID":"2018-048A","EPOCH":"2026-03-09T22:21:32.182272","MEAN_MOTION":14.76596577,"ECCENTRICITY":0.0013191,"INCLINATION":97.7867,"RA_OF_ASC_NODE":135.2035,"ARG_OF_PERICENTER":134.0247,"MEAN_ANOMALY":226.2053,"EPHEMERIS_TYPE":0,"CLASSIFICATION_TYPE":"U","NORAD_CAT_ID":43484,"ELEMENT_SET_NO":999,"REV_AT_EPOCH":41874,"BSTAR":0.00014448812,"MEAN_MOTION_DOT":9.61e-6,"MEAN_MOTION_DDOT":0},{"OBJECT_NAME":"SAC-D","OBJECT_ID":"2011-024A","EPOCH":"2026-03-09T22:52:48.165600","MEAN_MOTION":14.78448878,"ECCENTRICITY":0.0001994,"INCLINATION":97.983,"RA_OF_ASC_NODE":83.7212,"ARG_OF_PERICENTER":86.8507,"MEAN_ANOMALY":333.604,"EPHEMERIS_TYPE":0,"CLASSIFICATION_TYPE":"U","NORAD_CAT_ID":37673,"ELEMENT_SET_NO":999,"REV_AT_EPOCH":79312,"BSTAR":0.00018445748,"MEAN_MOTION_DOT":1.293e-5,"MEAN_MOTION_DDOT":0}]
